STARLINK-36948          
1 68209C 26053C   26090.54840278  .00048153  00000+0  25173-3 0   909
2 68209  97.2850 325.8932 0001416  84.8686 146.8685 15.80807464    14
STARLINK-37119          
1 68210C 26053D   26090.54909722  .00240890  00000+0  12593-2 0   904
2 68210  97.2851 325.8952 0001299 109.2649 130.6605 15.80709285    14
STARLINK-37120          
1 68211C 26053E   26090.51923611  .00077173  00000+0  40344-3 0   903
2 68211  97.2850 325.8652 0000934  79.3792 355.0286 15.80792934    13
STARLINK-37117          
1 68212C 26053F   26090.52548611  .00127260  00000+0  66525-3 0   900
2 68212  97.2849 325.8741 0001368  69.0717  45.1647 15.80767605    11
STARLINK-37116          
1 68213C 26053G   26090.55881944  .00085051  00000+0  44436-3 0   901
2 68213  97.2850 325.9111 0001333  97.4058 210.6598 15.80801509    17
STARLINK-35854          
1 68214C 26053H   26090.58659722  .00069611  00000+0  36361-3 0   904
2 68214  97.2850 325.9424 0001322  76.6102  33.7000 15.80814542    15
STARLINK-36272          
1 68215C 26053J   26090.57618056  .00055558  00000+0  29022-3 0   900
2 68215  97.2850 325.9329 0001161  89.3064 326.0371 15.80820450    13
STARLINK-37014          
1 68216C 26053K   26090.51506944  .00128110  00000+0  66970-3 0   905
2 68216  97.2849 325.8699 0001340  81.9477 350.1427 15.80767882    15
STARLINK-37011          
1 68217C 26053L   26090.56090278  .00051379  00000+0  26854-3 0   908
2 68217  97.2850 325.9208 0001433  87.9555 249.0591 15.80809841    11
STARLINK-37108          
1 68218C 26053M   26090.55743056  .00144560  00000+0  75520-3 0   906
2 68218  97.2850 325.9187 0001313  67.0308 254.5148 15.80773613    16
STARLINK-37106          
1 68219C 26053N   26090.58729167  .00055801  00000+0  29158-3 0   902
2 68219  97.2850 325.9522 0001225  74.6913  60.9465 15.80813509    18
STARLINK-37030          
1 68220C 26053P   26090.50604167  .00089220  00000+0  46659-3 0   905
2 68220  97.2850 325.8693 0001517  81.4586 320.6611 15.80777927    16
STARLINK-37012          
1 68221C 26053Q   26090.51090278  .00090467  00000+0  47293-3 0   909
2 68221  97.2849 325.8727 0001344  96.8875 328.6035 15.80786249    17
STARLINK-37110          
1 68222C 26053R   26090.49493056  .00102220  00000+0  53457-3 0   908
2 68222  97.2849 325.8593 0001299 104.1667 239.0429 15.80773114    19
STARLINK-37025          
1 68223C 26053S   26090.52618056  .00083383  00000+0  43595-3 0   902
2 68223  97.2852 325.8935 0001727  52.6447 112.5533 15.80785928    10
STARLINK-36977          
1 68224C 26053T   26090.53243056  .00073343  00000+0  38339-3 0   903
2 68224  97.2852 325.9017 0001761  49.4428 155.5696 15.80795121    17
STARLINK-36960          
1 68225C 26053U   26090.51784722  .00104760  00000+0  54781-3 0   909
2 68225  97.2851 325.8879 0001523  96.8340  29.5290 15.80771481    10
STARLINK-37038          
1 68226C 26053V   26090.50812500  .00100570  00000+0  52579-3 0   903
2 68226  97.2852 325.8811 0001649  57.7959  21.8165 15.80777250    15
STARLINK-37083          
1 68227C 26053W   26090.50743056  .00025510  00000+0  13335-3 0   900
2 68227  97.2851 325.8791 0001735  54.8913  16.4787 15.80819728    13
STARLINK-37050          
1 68228C 26053X   26090.57062500  .00064294  00000+0  33595-3 0   908
2 68228  97.2851 325.9499 0001666  59.1362  20.1805 15.80809070    11
STARLINK-37081          
1 68229C 26053Y   26090.49979167  .00173410  00000+0  11638-2 0   900
2 68229  97.2847 325.8660 0001565  94.5827 277.7038 15.75125403    16
STARLINK-37100          
1 68230C 26053Z   26090.59562500  .00065682  00000+0  34322-3 0   909
2 68230  97.2850 325.9782 0001284 101.4273 124.3444 15.80807573    18
STARLINK-37104          
1 68231C 26053AA  26090.58590278  .00059491  00000+0  31114-3 0   909
2 68231  97.2851 325.9695 0001690  68.8333 105.9346 15.80790866    19
STARLINK-37027          
1 68232C 26054A   26090.55048611 -.00070258  00000+0 -45735-3 0   907
2 68232  53.1605 203.2053 0001188  65.4622 163.2572 15.75275838    19
STARLINK-37132          
1 68233C 26054B   26090.55534722 -.00056949  00000+0 -28765-3 0   906
2 68233  53.1598 203.0847 0001215  91.8020 211.3966 15.80922805    17
STARLINK-37101          
1 68234C 26054C   26090.51993056 -.02155400  00000+0 -13079-1 0   906
2 68234  53.1597 203.2609 0001157  74.6484  27.3609 15.77921271    14
STARLINK-36963          
1 68235C 26054D   26090.53381944 -.00055925  00000+0 -36399-3 0   907
2 68235  53.1601 203.2385 0001381  60.3874  97.6494 15.75271736    10
STARLINK-37127          
1 68236C 26054E   26090.53520833 -.00059621  00000+0 -38817-3 0   904
2 68236  53.1600 203.3369 0001136  81.4050  33.0197 15.75266954    11
STARLINK-37095          
1 68237C 26054F   26090.59701389 -.00051735  00000+0 -33678-3 0   906
2 68237  53.1607 202.9774 0001450  48.5714  82.2934 15.75265303    16
STARLINK-37097          
1 68238C 26054G   26090.48729167  .00043101  00000+0  21773-3 0   908
2 68238  53.1596 203.3811 0001094  78.5568 218.4684 15.80870989    18
STARLINK-37096          
1 68239C 26054H   26090.49493056  .00003780  00000+0  19097-4 0   901
2 68239  53.1597 203.3253 0001027  80.8094 268.2610 15.80886414    18
STARLINK-37092          
1 68240C 26054J   26090.58381944 -.00066782  00000+0 -33724-3 0   900
2 68240  53.1596 202.8895 0001183  76.1412  54.8181 15.80933126    15
STARLINK-37094          
1 68241C 26054K   26090.47756944  .00004801  00000+0  24265-4 0   908
2 68241  53.1598 203.4035 0001189 110.2360 144.2495 15.80879632    12
STARLINK-36356          
1 68242C 26054L   26090.55465278 -.01365300  00000+0 -87995-2 0   909
2 68242  53.1598 203.0261 0001361  93.2135 235.9300 15.76153210    17
STARLINK-36345          
1 68243C 26054M   26090.53937500 -.00047058  00000+0 -30627-3 0   907
2 68243  53.1607 203.2064 0001135  75.3196 116.1087 15.75268256    17
STARLINK-36310          
1 68244C 26054N   26090.54770833  .00013980  00000+0  70611-4 0   906
2 68244  53.1597 203.0171 0001108  62.9322 248.0300 15.80889196    17
STARLINK-36247          
1 68245C 26054P   26090.56506944 -.00005758  00000+0 -29079-4 0   907
2 68245  53.1596 202.9394 0001232  70.0145 335.5370 15.80900193    13
STARLINK-37043          
1 68246C 26054Q   26090.56298611 -.00055405  00000+0 -27992-3 0   902
2 68246  53.1597 202.9321 0001104  71.3768 330.8584 15.80916825    12
STARLINK-37044          
1 68247C 26054R   26090.55881944 -.00041594  00000+0 -21012-3 0   900
2 68247  53.1597 202.9439 0001113  75.5850 307.1888 15.80912612    15
STARLINK-36997          
1 68248C 26054S   26090.54562500 -.00015299  00000+0 -99603-4 0   909
2 68248  53.1604 203.1224 0001351  71.9674 180.6895 15.75244434    14
STARLINK-37141          
1 68249C 26054T   26090.58381944 -.02138200  00000+0 -11412-1 0   904
2 68249  53.1596 202.8014 0001210  52.6127 121.0782 15.80768006    17
STARLINK-37087          
1 68250C 26054U   26090.60256944  .00036871  00000+0  24028-3 0   906
2 68250  53.1596 202.7383 0000696  91.4016 174.0459 15.75198148    19
STARLINK-36274          
1 68251C 26054V   26090.54006944  .00037057  00000+0  24124-3 0   907
2 68251  53.1600 203.1011 0000994  90.3699 154.6576 15.75221095    17
STARLINK-37085          
1 68252C 26054W   26090.58659722  .00019217  00000+0  97058-4 0   905
2 68252  53.1595 202.7608 0001498  67.5536 134.7623 15.80885485    11
STARLINK-37086          
1 68253C 26054X   26090.53798611  .00037772  00000+0  19083-3 0   909
2 68253  53.1593 202.9957 0000990 108.0482 181.7358 15.80871323    19
STARLINK-37084          
1 68254C 26054Y   26090.53590278 -.00030738  00000+0 -15528-3 0   906
2 68254  53.1593 202.9884 0000945  82.7307 203.7278 15.80907966    12
STARLINK-37075          
1 68255C 26054Z   26090.56020833 -.00064615  00000+0 -32638-3 0   907
2 68255  53.1593 202.8756 0001399  98.1390 322.4485 15.80925957    16
STARLINK-36333          
1 68256C 26054AA  26090.52131944 -.00044008  00000+0 -22236-3 0   907
2 68256  53.1593 203.0529 0001087  82.1771 125.5114 15.80909582    15
STARLINK-36745          
1 68257C 26054AB  26090.56923611  .00119990  00000+0  78200-3 0   905
2 68257  53.1595 202.8500 0001765  46.7513  55.3093 15.75153079    19
STARLINK-36890          
1 68258C 26054AC  26090.59840278  .00004801  00000+0  24264-4 0   902
2 68258  53.1592 202.6401 0000861  78.3869 221.0729 15.80880016    18
STARLINK-36323          
1 68259C 26054AD  26090.56229167  .00042865  00000+0  21653-3 0   908
2 68259  53.1592 202.8386 0001083  71.6303  13.6455 15.80872099    12
STARLINK-37056          
1 68260C 26054AE  26090.56298611 -.00042121  00000+0 -21279-3 0   901
2 68260  53.1591 202.8084 0000939  93.5160   8.5282 15.80912336    11
STARLINK-37162          
1 68262C 26055A   26090.60534722 -.01325200  00000+0 -46747-2 0   904
2 68262  53.1577 227.5609 0000930  64.9324  34.7382 15.89042551    13
STARLINK-37156          
1 68263C 26055B   26090.55187500 -.01335600  00000+0 -46594-2 0   902
2 68263  53.1576 227.8253 0000961  70.7209  86.2343 15.89270934    19
STARLINK-37163          
1 68264C 26055C   26090.49006944 -.01346500  00000+0 -46365-2 0   905
2 68264  53.1577 228.1211 0001093  71.6699  99.4292 15.89536566    14
STARLINK-37133          
1 68265C 26055D   26090.49840278 -.01340900  00000+0 -46347-2 0   900
2 68265  53.1577 228.0875 0000910  73.8577 141.0337 15.89458655    12
STARLINK-37042          
1 68266C 26055E   26090.53034722 -.01372700  00000+0 -47517-2 0   908
2 68266  53.1575 227.9076 0000840  73.1951 333.2662 15.89444870    13
STARLINK-37103          
1 68267C 26055F   26090.49423611 -.01361800  00000+0 -46826-2 0   904
2 68267  53.1579 228.0816 0000929  74.7605 129.1966 15.89572587    19
STARLINK-36999          
1 68268C 26055G   26090.55881944 -.01365500  00000+0 -47250-2 0   902
2 68268  53.1577 227.7462 0000762  80.0147 137.6797 15.89449071    14
